{
  "type": "FeatureCollection",
  "features": [
    {
      "type": "Feature",
      "properties": {
        "norad_id": 31195,
        "name": "FENGYUN 1C DEB",
        "group": "fengyun-1c-debris",
        "lat": 20.242707654059412,
        "lon": -163.4401715562698,
        "alt_km": 772.1127307556553,
        "timestamp": "2025-12-05T18:53:13.562824+00:00",
        "meta_object_name": "FENGYUN 1C DEB",
        "meta_object_id": "1999-025BJZ",
        "meta_epoch": "2025-12-04T13:07:42.866688",
        "meta_mean_motion": 14.07972608,
        "meta_eccentricity": 0.0171503,
        "meta_inclination": 98.78,
        "meta_ra_of_asc_node": 12.0861,
        "meta_arg_of_pericenter": 204.2856,
        "meta_mean_anomaly": 155.0161,
        "meta_ephemeris_type": 0,
        "meta_classification_type": "U",
        "meta_norad_cat_id": 31195,
        "meta_element_set_no": 999,
        "meta_rev_at_epoch": 95983,
        "meta_bstar": 0.00023633,
        "meta_mean_motion_dot": 4.16e-06,
        "meta_mean_motion_ddot": 0,
        "tle_line1": "1 31195U 99025BJZ 25338.54702392  .00000416  00000+0  23633-3 0  9997",
        "tle_line2": "2 31195  98.7800  12.0861 0171503 204.2856 155.0161 14.07972608959832"
      },
      "geometry": {
        "type": "Point",
        "coordinates": [
          -163.4401715562698,
          20.242707654059412
        ]
      }
    },
    {
      "type": "Feature",
      "properties": {
        "norad_id": 31196,
        "name": "FENGYUN 1C DEB",
        "group": "fengyun-1c-debris",
        "lat": 29.389445993042425,
        "lon": -11.643655120208487,
        "alt_km": 843.6977798863527,
        "timestamp": "2025-12-05T18:53:13.562833+00:00",
        "meta_object_name": "FENGYUN 1C DEB",
        "meta_object_id": "1999-025BKA",
        "meta_epoch": "2025-12-05T06:57:14.577120",
        "meta_mean_motion": 14.25430103,
        "meta_eccentricity": 0.00576689,
        "meta_inclination": 98.5271,
        "meta_ra_of_asc_node": 352.7203,
        "meta_arg_of_pericenter": 234.2071,
        "meta_mean_anomaly": 125.3741,
        "meta_ephemeris_type": 0,
        "meta_classification_type": "U",
        "meta_norad_cat_id": 31196,
        "meta_element_set_no": 999,
        "meta_rev_at_epoch": 63389,
        "meta_bstar": 0.00089464935,
        "meta_mean_motion_dot": 2.106e-05,
        "meta_mean_motion_ddot": 0,
        "tle_line1": "1 31196U 99025BKA 25339.28975205  .00002106  00000+0  89465-3 0  9998",
        "tle_line2": "2 31196  98.5271 352.7203 0057668 234.2071 125.3741 14.25430103633892"
      },
      "geometry": {
        "type": "Point",
        "coordinates": [
          -11.643655120208487,
          29.389445993042425
        ]
      }
    },
    {
      "type": "Feature",
      "properties": {
        "norad_id": 31198,
        "name": "FENGYUN 1C DEB",
        "group": "fengyun-1c-debris",
        "lat": -36.35922783768202,
        "lon": -102.08951682303571,
        "alt_km": 1120.0347476400584,
        "timestamp": "2025-12-05T18:53:13.562843+00:00",
        "meta_object_name": "FENGYUN 1C DEB",
        "meta_object_id": "1999-025BKC",
        "meta_epoch": "2025-12-01T12:34:56.883936",
        "meta_mean_motion": 13.75517789,
        "meta_eccentricity": 0.02043988,
        "meta_inclination": 98.6128,
        "meta_ra_of_asc_node": 80.4615,
        "meta_arg_of_pericenter": 21.657,
        "meta_mean_anomaly": 339.3074,
        "meta_ephemeris_type": 0,
        "meta_classification_type": "U",
        "meta_norad_cat_id": 31198,
        "meta_element_set_no": 999,
        "meta_rev_at_epoch": 62599,
        "meta_bstar": 9.550966e-05,
        "meta_mean_motion_dot": 6.9e-07,
        "meta_mean_motion_ddot": 0,
        "tle_line1": "1 31198U 99025BKC 25335.52426949  .00000069  00000+0  95510-4 0  9994",
        "tle_line2": "2 31198  98.6128  80.4615 0204398  21.6570 339.3074 13.75517789625992"
      },
      "geometry": {
        "type": "Point",
        "coordinates": [
          -102.08951682303571,
          -36.35922783768202
        ]
      }
    },
    {
      "type": "Feature",
      "properties": {
        "norad_id": 31199,
        "name": "FENGYUN 1C DEB",
        "group": "fengyun-1c-debris",
        "lat": -41.08171191832656,
        "lon": 135.098002405323,
        "alt_km": 841.4067323059116,
        "timestamp": "2025-12-05T18:53:13.562853+00:00",
        "meta_object_name": "FENGYUN 1C DEB",
        "meta_object_id": "1999-025BKD",
        "meta_epoch": "2025-12-01T22:00:32.715648",
        "meta_mean_motion": 14.0997455,
        "meta_eccentricity": 0.00638947,
        "meta_inclination": 98.7153,
        "meta_ra_of_asc_node": 319.0345,
        "meta_arg_of_pericenter": 290.7874,
        "meta_mean_anomaly": 99.0046,
        "meta_ephemeris_type": 0,
        "meta_classification_type": "U",
        "meta_norad_cat_id": 31199,
        "meta_element_set_no": 999,
        "meta_rev_at_epoch": 96007,
        "meta_bstar": 0.00023048565,
        "meta_mean_motion_dot": 3.71e-06,
        "meta_mean_motion_ddot": 0,
        "tle_line1": "1 31199U 99025BKD 25335.91704532  .00000371  00000+0  23049-3 0  9998",
        "tle_line2": "2 31199  98.7153 319.0345 0063894 290.7874  99.0046 14.09974550960074"
      },
      "geometry": {
        "type": "Point",
        "coordinates": [
          135.098002405323,
          -41.08171191832656
        ]
      }
    },
    {
      "type": "Feature",
      "properties": {
        "norad_id": 31201,
        "name": "FENGYUN 1C DEB",
        "group": "fengyun-1c-debris",
        "lat": 13.895773197241658,
        "lon": 22.610461820702735,
        "alt_km": 867.5903585306633,
        "timestamp": "2025-12-05T18:53:13.562863+00:00",
        "meta_object_name": "FENGYUN 1C DEB",
        "meta_object_id": "1999-025BKF",
        "meta_epoch": "2025-12-04T13:48:41.826240",
        "meta_mean_motion": 14.35098057,
        "meta_eccentricity": 0.0143095,
        "meta_inclination": 99.0029,
        "meta_ra_of_asc_node": 199.0994,
        "meta_arg_of_pericenter": 15.0831,
        "meta_mean_anomaly": 14.6079,
        "meta_ephemeris_type": 0,
        "meta_classification_type": "U",
        "meta_norad_cat_id": 31201,
        "meta_element_set_no": 999,
        "meta_rev_at_epoch": 97134,
        "meta_bstar": 0.0016635,
        "meta_mean_motion_dot": 5.282e-05,
        "meta_mean_motion_ddot": 0,
        "tle_line1": "1 31201U 99025BKF 25338.57548410  .00005282  00000+0  16635-2 0  9996",
        "tle_line2": "2 31201  99.0029 199.0994 0143095  15.0831  14.6079 14.35098057971342"
      },
      "geometry": {
        "type": "Point",
        "coordinates": [
          22.610461820702735,
          13.895773197241658
        ]
      }
    },
    {
      "type": "Feature",
      "properties": {
        "norad_id": 31202,
        "name": "FENGYUN 1C DEB",
        "group": "fengyun-1c-debris",
        "lat": 4.488429574896146,
        "lon": -153.2235477640737,
        "alt_km": 576.6768667698761,
        "timestamp": "2025-12-05T18:53:13.562873+00:00",
        "meta_object_name": "FENGYUN 1C DEB",
        "meta_object_id": "1999-025BKG",
        "meta_epoch": "2025-12-03T21:35:02.325408",
        "meta_mean_motion": 14.83824488,
        "meta_eccentricity": 0.0067779,
        "meta_inclination": 96.5743,
        "meta_ra_of_asc_node": 24.7016,
        "meta_arg_of_pericenter": 207.2268,
        "meta_mean_anomaly": 331.288,
        "meta_ephemeris_type": 0,
        "meta_classification_type": "U",
        "meta_norad_cat_id": 31202,
        "meta_element_set_no": 999,
        "meta_rev_at_epoch": 99023,
        "meta_bstar": 0.0023033,
        "meta_mean_motion_dot": 0.00019887,
        "meta_mean_motion_ddot": 0,
        "tle_line1": "1 31202U 99025BKG 25337.89933247  .00019887  00000+0  23033-2 0  9993",
        "tle_line2": "2 31202  96.5743  24.7016 0067779 207.2268 331.2880 14.83824488990235"
      },
      "geometry": {
        "type": "Point",
        "coordinates": [
          -153.2235477640737,
          4.488429574896146
        ]
      }
    },
    {
      "type": "Feature",
      "properties": {
        "norad_id": 31205,
        "name": "FENGYUN 1C DEB",
        "group": "fengyun-1c-debris",
        "lat": 8.604474920766389,
        "lon": -105.99105590709752,
        "alt_km": 732.3406344444138,
        "timestamp": "2025-12-05T18:53:13.562883+00:00",
        "meta_object_name": "FENGYUN 1C DEB",
        "meta_object_id": "1999-025BKK",
        "meta_epoch": "2025-12-04T11:43:07.635648",
        "meta_mean_motion": 14.23946313,
        "meta_eccentricity": 0.0161551,
        "meta_inclination": 99.2293,
        "meta_ra_of_asc_node": 71.2361,
        "meta_arg_of_pericenter": 221.0534,
        "meta_mean_anomaly": 137.8393,
        "meta_ephemeris_type": 0,
        "meta_classification_type": "U",
        "meta_norad_cat_id": 31205,
        "meta_element_set_no": 999,
        "meta_rev_at_epoch": 97093,
        "meta_bstar": 0.00032977,
        "meta_mean_motion_dot": 8.15e-06,
        "meta_mean_motion_ddot": 0,
        "tle_line1": "1 31205U 99025BKK 25338.48828282  .00000815  00000+0  32977-3 0  9993",
        "tle_line2": "2 31205  99.2293  71.2361 0161551 221.0534 137.8393 14.23946313970931"
      },
      "geometry": {
        "type": "Point",
        "coordinates": [
          -105.99105590709752,
          8.604474920766389
        ]
      }
    }
  ]
}